NORAD_CAT_ID,OBJECT_NAME,OBJECT_TYPE,EPOCH,MEAN_MOTION,ECCENTRICITY,INCLINATION,RA_OF_ASC_NODE,ARG_OF_PERICENTER,MEAN_ANOMALY,BSTAR,MEAN_MOTION_DOT,MEAN_MOTION_DDOT,TLE_LINE0,TLE_LINE1,TLE_LINE2,SEMIMAJOR_AXIS,PERIOD,APOGEE,PERIGEE,DECAYED
53250.0,STARLINK-4059,PAYLOAD,2022-09-18 22:00:00,15.3622555,0.0001322,53.2172,126.6554,57.5895,277.805,-0.032543,-0.01069973,0.0,0 STARLINK-4059,1 53250U 22086J   22261.91667824 -.01069973  00000-0 -32543-1 0  9994,2 53250  53.2172 126.6554 0001322  57.5895 277.8050 15.36225550  9476,6835.42,93.736,458.18800000000016,456.381,0.0
53250.0,STARLINK-4059,PAYLOAD,2022-09-19 14:00:01,15.34704383,0.0001247,53.2173,123.5282,66.0469,356.5133,-0.034044,-0.0106611,0.0,0 STARLINK-4059,1 53250U 22086J   22262.58334491 -.01066110  00000-0 -34044-1 0  9997,2 53250  53.2173 123.5282 0001247  66.0469 356.5133 15.34704383  1304,6839.936,93.829,462.654,460.948,0.0
53250.0,STARLINK-4059,PAYLOAD,2022-09-19 22:00:00,15.33947403,0.0001526,53.2173,121.9705,51.659,53.1118,-0.035022,-0.01070206,0.0,0 STARLINK-4059,1 53250U 22086J   22262.91667824 -.01070206  00000-0 -35022-1 0  9991,2 53250  53.2173 121.9705 0001526  51.6590  53.1118 15.33947403  9628,6842.186,93.875,465.095,463.007,0.0
53250.0,STARLINK-4059,PAYLOAD,2022-09-20 14:00:01,15.32426944,0.0001436,53.2173,118.8542,68.2035,118.2564,-0.036633,-0.01066944,0.0,0 STARLINK-4059,1 53250U 22086J   22263.58334491 -.01066944  00000-0 -36633-1 0  9999,2 53250  53.2173 118.8542 0001436  68.2035 118.2564 15.32426944  1306,6846.7109999999975,93.969,469.559,467.593,0.0
53250.0,STARLINK-4059,PAYLOAD,2022-09-20 22:00:01,15.31666506,0.0001549,53.2173,117.3015,57.6565,168.3415,-0.037475,-0.01065748,0.0,0 STARLINK-4059,1 53250U 22086J   22263.91668981 -.01065748  00000-0 -37475-1 0  9996,2 53250  53.2173 117.3015 0001549  57.6565 168.3415 15.31666506  9779,6848.977,94.015,471.903,469.781,0.0
53250.0,STARLINK-4059,PAYLOAD,2022-09-21 22:00:00,15.29389533,0.0001379,53.2173,112.649,55.3123,283.5696,-0.04033,-0.01067993,0.0,0 STARLINK-4059,1 53250U 22086J   22264.91667824 -.01067993  00000-0 -40330-1 0  9990,2 53250  53.2173 112.6490 0001379  55.3123 283.5696 15.29389533  1301,6855.773,94.155,478.583,476.693,0.0
53250.0,STARLINK-4059,PAYLOAD,2022-09-22 14:00:01,15.2786149,0.0001322,53.2167,109.5564,57.4995,352.1213,-0.041654,-0.01053513,0.0,0 STARLINK-4059,1 53250U 22086J   22265.58334491 -.01053513  00000-0 -41654-1 0  9998,2 53250  53.2167 109.5564 0001322  57.4995 352.1213 15.27861490  1302,6860.343000000003,94.249,483.115,481.301,0.0
53250.0,STARLINK-4059,PAYLOAD,2022-09-22 22:00:00,15.2711841,0.0001453999999999,53.2173,108.0145,59.874,23.7375,-0.043688,-0.01077906,0.0,0 STARLINK-4059,1 53250U 22086J   22265.91667824 -.01077906  00000-0 -43688-1 0  9995,2 53250  53.2173 108.0145 0001454  59.8740  23.7375 15.27118410  1305,6862.569,94.295,485.431,483.436,0.0
53250.0,STARLINK-4059,PAYLOAD,2022-09-23 14:00:01,15.25640954,0.0001607,53.2171,104.9302,59.36,89.4892,-0.048085,-0.01129345,0.0,0 STARLINK-4059,1 53250U 22086J   22266.58334491 -.01129345  00000-0 -48085-1 0  9991,2 53250  53.2171 104.9302 0001607  59.3600  89.4892 15.25640954  1307,6866.998000000001,94.387,489.967,487.76,0.0
53250.0,STARLINK-4059,PAYLOAD,2022-09-23 22:00:00,15.2482719,0.0001486999999999,53.2173,103.394,66.2441,113.8935,-0.045929,-0.01058749,0.0,0 STARLINK-4059,1 53250U 22086J   22266.91667824 -.01058749  00000-0 -45929-1 0  9990,2 53250  53.2173 103.3940 0001487  66.2441 113.8935 15.24827190  1304,6869.441,94.437,492.328,490.285,0.0
53250.0,STARLINK-4059,PAYLOAD,2022-09-24 14:00:01,15.23326333,0.0001482,53.217,100.3202,59.3627,180.6137,-0.0492,-0.01082049,0.0,0 STARLINK-4059,1 53250U 22086J   22267.58335648 -.01082049  00000-0 -49200-1 0  9996,2 53250  53.2170 100.3202 0001482  59.3627 180.6137 15.23326333 10334,6873.953,94.53,496.836,494.799,0.0
53250.0,STARLINK-4059,PAYLOAD,2022-09-24 22:00:00,15.22551264,0.0001545,53.2174,98.7874,54.9061,213.5382,-0.049343,-0.01062195,0.0,0 STARLINK-4059,1 53250U 22086J   22267.91667824 -.01062195  00000-0 -49343-1 0  9995,2 53250  53.2174  98.7874 0001545  54.9061 213.5382 15.22551264  1303,6876.285,94.578,499.213,497.088,0.0
53250.0,STARLINK-4059,PAYLOAD,2022-09-25 14:00:01,15.21033134,0.0001413,53.2175,95.7248,55.1247,267.628,-0.051672,-0.01063292,0.0,0 STARLINK-4059,1 53250U 22086J   22268.58334491 -.01063292  00000-0 -51672-1 0  9997,2 53250  53.2175  95.7248 0001413  55.1247 267.6280 15.21033134  1306,6880.86,94.672,503.697,501.753,0.0
53250.0,STARLINK-4059,PAYLOAD,2022-09-25 22:00:01,15.20273137,0.0001595,53.2174,94.1989,43.1646,305.4356,-0.052825,-0.01063039,0.0,0 STARLINK-4059,1 53250U 22086J   22268.91668981 -.01063039  00000-0 -52825-1 0  9998,2 53250  53.2174  94.1989 0001595  43.1646 305.4356 15.20273137 10540,6883.153,94.72,506.116,503.92,0.0
53250.0,STARLINK-4059,PAYLOAD,2022-09-26 14:00:01,15.18792997,0.0001441999999999,53.2171,91.1486,47.6238,349.7244,-0.0580309999999999,-0.01128257,0.0,0 STARLINK-4059,1 53250U 22086J   22269.58334491 -.01128257  00000-0 -58031-1 0  9997,2 53250  53.2171  91.1486 0001442  47.6238 349.7244 15.18792997  1301,6887.624,94.812,510.483,508.496,0.0
53250.0,STARLINK-4059,PAYLOAD,2022-09-26 22:00:00,15.17995221,0.00016,53.2174,89.6284,46.6369,13.7772,-0.056517,-0.01077628,0.0,0 STARLINK-4059,1 53250U 22086J   22269.91667824 -.01077628  00000-0 -56517-1 0  9995,2 53250  53.2174  89.6284 0001600  46.6369  13.7772 15.17995221 10692,6890.0369999999975,94.862,513.005,510.8,0.0
53250.0,STARLINK-4059,PAYLOAD,2022-09-27 14:00:01,15.16489704,0.0001585999999999,53.2172,86.5866,51.0922,52.6717,-0.060052,-0.01095011,0.0,0 STARLINK-4059,1 53250U 22086J   22270.58334491 -.01095011  00000-0 -60052-1 0  9996,2 53250  53.2172  86.5866 0001586  51.0922  52.6717 15.16489704  1302,6894.597,94.956,517.555,515.368,0.0
53250.0,STARLINK-4059,PAYLOAD,2022-09-27 22:00:01,15.15716803,0.0001732,53.2174,85.0716,47.8139,76.3276,-0.060278,-0.01076529,0.0,0 STARLINK-4059,1 53250U 22086J   22270.91668981 -.01076529  00000-0 -60278-1 0  9990,2 53250  53.2174  85.0716 0001732  47.8139  76.3276 15.15716803  1303,6896.94,95.005,520.0,517.611,0.0
53250.0,STARLINK-4059,PAYLOAD,2022-09-28 14:00:01,15.14196125,0.0001791,53.2174,82.0392,46.4136,115.5477,-0.062837,-0.01074833,0.0,0 STARLINK-4059,1 53250U 22086J   22271.58334491 -.01074833  00000-0 -62837-1 0  9999,2 53250  53.2174  82.0392 0001791  46.4136 115.5477 15.14196125  1304,6901.557,95.1,524.658,522.186,0.0
53250.0,STARLINK-4059,PAYLOAD,2022-09-28 22:00:00,15.13440466,0.0001766999999999,53.2175,80.531,49.6635,129.8638,-0.064409,-0.01078156,0.0,0 STARLINK-4059,1 53250U 22086J   22271.91667824 -.01078156  00000-0 -64409-1 0  9994,2 53250  53.2175  80.5310 0001767  49.6635 129.8638 15.13440466  1306,6903.854,95.147,526.939,524.499,0.0
53250.0,STARLINK-4059,PAYLOAD,2022-09-29 14:00:01,15.11947135,0.0001714,53.2177,77.5108,54.9574,156.96200000000005,-0.069576,-0.01113844,0.0,0 STARLINK-4059,1 53250U 22086J   22272.58334491 -.01113844  00000-0 -69576-1 0  9993,2 53250  53.2177  77.5108 0001714  54.9574 156.9620 15.11947135  1307,6908.399,95.241,531.448,529.08,0.0
53250.0,STARLINK-4059,PAYLOAD,2022-09-29 22:00:00,15.11184321,0.0001587,53.2176,76.0061,47.8019,178.9502,-0.0706519999999999,-0.01107687,0.0,0 STARLINK-4059,1 53250U 22086J   22272.91667824 -.01107687  00000-0 -70652-1 0  9994,2 53250  53.2176  76.0061 0001587  47.8019 178.9502 15.11184321 11147,6910.724,95.29,533.686,531.492,0.0
53250.0,STARLINK-4059,PAYLOAD,2022-09-30 14:00:01,15.09517146,0.000173,53.2178,72.9982,43.3806,210.3358,-0.04663,-0.00704815,0.0,0 STARLINK-4059,1 53250U 22086J   22273.58334491 -.00704815  00000-0 -46630-1 0  9993,2 53250  53.2178  72.9982 0001730  43.3806 210.3358 15.09517146  1300,6915.811,95.395,538.873,536.48,0.0
53250.0,STARLINK-4059,PAYLOAD,2022-09-30 16:00:00,15.09325891,0.0001795,53.2175,72.6229,41.3033,305.5161,-0.037526,-0.00566428,0.0,0 STARLINK-4059,1 53250U 22086J   22273.66667824 -.00566428  00000-0 -37526-1 0  9991,2 53250  53.2175  72.6229 0001795  41.3033 305.5161 15.09325891 11268,6916.396,95.407,539.502,537.019,0.0
53250.0,STARLINK-4059,PAYLOAD,2022-09-30 22:00:00,15.08721254,0.0001831999999999,53.2182,71.5044,43.6651,222.106,0.024909,0.00419052,0.0,0 STARLINK-4059,1 53250U 22086J   22273.91667824  .00419052  00000-0  24909-1 0  9998,2 53250  53.2182  71.5044 0001832  43.6651 222.1060 15.08721254  1300,6918.243,95.445,541.376,538.841,0.0
53250.0,STARLINK-4059,PAYLOAD,2022-10-01 06:00:00,15.08766991,0.0001569,53.2193,70.0081,44.1497,233.1746,0.0098739999999999,0.00160131,0.0,0 STARLINK-4059,1 53250U 22086J   22274.25001157  .00160131  00000-0  98740-2 0  9993,2 53250  53.2193  70.0081 0001569  44.1497 233.1746 15.08766991 11354,6918.104,95.442,541.054,538.883,0.0
53250.0,STARLINK-4059,PAYLOAD,2022-10-01 14:00:01,15.08874289,0.0001585999999999,53.2188,68.5174,45.0788,243.8247,-0.0023482,-0.000375,0.0,0 STARLINK-4059,1 53250U 22086J   22274.58334491 -.00037500  00000-0 -23482-2 0  9995,2 53250  53.2188  68.5174 0001586  45.0788 243.8247 15.08874289  1303,6917.776,95.435,540.738,538.543,0.0
53250.0,STARLINK-4059,PAYLOAD,2022-10-01 22:00:00,15.08844158,0.0001827,53.2178,67.02199999999999,42.6901,257.8389,-0.0037418,-0.00059356,0.0,0 STARLINK-4059,1 53250U 22086J   22274.91667824 -.00059356  00000-0 -37418-2 0  9998,2 53250  53.2178  67.0220 0001827  42.6901 257.8389 15.08844158  1300,6917.868,95.437,540.997,538.469,0.0
53250.0,STARLINK-4059,PAYLOAD,2022-10-02 14:00:01,15.08865015,0.0001838,53.218,64.0288,51.0393,272.6108,-0.00046508,-7.687e-05,0.0,0 STARLINK-4059,1 53250U 22086J   22275.58334491 -.00007687  00000-0 -46508-3 0  9994,2 53250  53.2180  64.0288 0001838  51.0393 272.6108 15.08865015 11552,6917.804,95.436,540.94,538.3969999999998,0.0
